"OBJECTID,N,10,0","NAME,C,50","CLASS,C,4","NPU1,C,4","DISTRICT,C,8","ADDRESS,C,50","GIS_AC,N,19,11","ZIP,C,5","X_TRLPAV,N,4,0","X_TRLNPAV,N,4,0","PAVILIONS,N,11,0","PLAYGROUND,N,12,0","PIC_SHEL,N,9,0","GAZEBO,N,9,0","PICNICTABL,N,9,0","PARKGRILL1,N,12,0","RESTROOMS,C,11","PV_PRKSPAC,C,14","BALLFIELDS,N,9,0","SOCCER,C,13","TENNIS,N,9,0","TRL_NUM,C,9","TRL_LEN,C,9","BBALL,N,9,0","VOLLEYBALL,N,9,0","POOL,C,9","GYM,C,9","RECCEN,N,18,0","COVBB,N,4,0","DOGPARK,N,4,0","TRACK,N,4,0","NAT,N,4,0","GOLF,N,4,0","AREA_FIN,N,19,3","RECCTRNM,C,254","SHAPE_AREA,N,19,11"
1,Chattahoochee Trail,CN,D,9,Jackson Pkwy NW,51.69100000000,30318,0,0,0,0,0,0,0,0,,,0,,0,,,0,0,,,0,0,0,0,0,0,49.187,,2257922.09278000000
2,Southside Park,R,Z,12,3460 Jonesboro Rd. SE,211.00000000000,30354,0,0,0,0,0,0,0,0,,,0,,0,,,0,0,,,1,0,0,0,0,0,211.440,,9183217.48458000000
3,Herbert Taylor Park,N,F,6,1795 Johnson Rd. NE,28.36598019930,30306,0,0,0,0,0,0,0,0,0,0,0,,0,,,0,0,,0,0,0,0,0,0,0,26.000,,1139479.98805000000
4,Daniel Johnson Nature Preserve,NP,F,6,Beech Valley Rd NE,7.29499240884,30306,0,0,0,0,0,0,0,0,0,0,0,,0,1,0.25,0,0,,0,0,0,0,0,0,0,8.000,,352511.75706000000
5,Lakewood Fairgrounds & HiFi Buys Amphitheater,SF,Y,12,"2002 LAKEWOOD WAY
",113.29803072200,30315,0,0,0,0,0,0,0,0,,,0,,0,,,0,0,,,0,0,0,0,0,0,113.298,,4931159.21395000000
6,J. Allen Couch Park,N,E,2,"Hemphill Ave./Ferst St./6th St.
",6.40935953866,30318,0,0,0,0,0,0,0,0,,,0,,0,,,0,0,,,0,0,0,0,0,0,6.409,,278963.34837000000
7,John C. Burdine Center,CC,Z,12,215 Lakewood Way SW,4.27232876368,30315,0,0,0,0,0,0,0,0,,,0,,0,0,0,0,0,,,0,0,0,0,0,0,4.272,,185948.55966000000
8,Stephanie Drive Park,G,P,11,Fairburn Rd./Stephanie Dr. SW,0.37316387521,30331,0,0,0,0,0,0,0,0,0,0,0,,0,,,0,0,,0,0,0,0,0,0,0,0.373,,16243.86918000000
9,Inman Park Trolley Barn,SF,N,2,"963 Edgewood Ave NE
",0.74246154780,30307,0,0,0,0,0,0,0,0,,,0,,0,,,0,0,,,0,0,0,0,0,0,0.742,,32313.32902000000
10,Green Leaf Circle,G,T,4,Next to 202 Napolean Dr.SW (off Westview Dr.),0.99024335340,30310,0,0,0,0,0,0,0,0,0,0,0,,0,,,0,0,,0,0,0,0,0,0,0,0.990,,43100.99074000000
11,Benton Place Garden,G,A,8,Benton Place at Rilman Dr. NW,0.03548842125,30327,0,0,0,0,0,0,0,0,0,0,0,,0,,,0,0,,0,0,0,0,0,0,0,0.035,,1544.64797000000
12,Boulevard-Angier Park,G,M,2,Blvd/Angier Ave. NE,0.18045642686,30312,0,0,0,0,0,0,0,0,0,0,0,,0,,,0,0,,0,0,0,0,0,0,0,0.180,,7853.95854000000
13,Charles Allen Median,G,E,6,Charles Allen Dr. NE,0.32462447034,30308,0,0,0,0,0,0,0,0,0,0,0,,0,,,0,0,,0,0,0,0,0,0,0,0.325,,14128.55728000000
14,Mayor's #1 Park,G,M,2,Peachtree St./Ralph McGill Blvd. NE,0.22173888544,30308,0,0,0,0,0,0,0,0,0,0,0,,0,,,0,0,,0,0,0,0,0,0,0,0.222,,9650.83481000000
15,Folk Art (Courtland) Park,G,M,2,both sides of Courtland St. at Ralph McGill Ave.,0.49536644030,30308,0,0,0,0,0,0,0,0,,,0,,0,,,0,0,,,0,0,0,0,0,0,0.495,,21560.02764000000
16,Folk Art (Piedmont) Park,G,M,2,both sides of Courtland St. at Ralph McGill Ave.,0.30356676380,30308,0,0,0,0,0,0,0,0,,,0,,0,,,0,0,,,0,0,0,0,0,0,0.495,,13212.24823000000
17,Glenwood Triangle,G,O,5,Wilkinson Dr./Glenwood Ave./I-20,0.05083203240,30317,0,0,0,0,0,0,0,0,0,0,0,,0,,,0,0,,0,0,0,0,0,0,0,0.051,,2212.22703000000
18,Larchmont Circle,G,I,10,Larchmont Dr./Larchmont Cir. NW,0.02392330379,30318,0,0,0,0,0,0,0,0,0,0,0,,0,,,0,0,,0,0,0,0,0,0,0,0.024,,1041.35143000000
19,Marietta Street Island,G,M,2,Marietta St./Broad St./Fairlie St. NW,0.17263536811,30303,0,0,0,0,0,0,0,0,0,0,0,,0,,,0,0,,0,0,0,0,0,0,0,0.173,,7513.76455000000
20,Oak Knoll I Park,G,Y,1,Oak Knoll Cir./Oaknoll Terr. SE,1.07063691788,30315,0,0,0,0,0,0,0,0,0,0,0,,0,,,0,0,,0,0,0,0,0,0,0,1.071,,46597.25813000000
21,Oak Knoll II Park,G,Y,1,"Oak Knoll Cir. SE, near the end",0.55925932410,30315,0,0,0,0,0,0,0,0,0,0,0,,0,,,0,0,,0,0,0,0,0,0,0,0.559,,24340.64743000000
22,Oakview I Park,G,O,5,Oakview Rd./Douglas St. SE,0.45205060625,30317,0,0,0,0,0,0,0,0,0,0,0,,0,,,0,0,,0,0,0,0,0,0,0,0.452,,19673.18819000000
23,Oakview II Park,G,O,5,Oakview Rd./Second Ave. SE,0.60980260316,30030,0,0,0,0,0,0,0,0,0,0,0,,0,,,0,0,,0,0,0,0,0,0,0,0.610,,26538.38478000000
24,Parkway-Wabash Park,B,M,2,391 Parkway Dr. NE (at Wabash Ave.),0.60017922020,30312,0,0,0,1,0,0,0,0,0,0,0,,0,,,1,0,,0,0,0,0,0,0,0,0.600,,26121.47565000000
25,Parkway-Merritts Park,B,M,2,Parkway Dr. @ Merritts Ave. NE,0.67478277855,30308,0,0,0,0,0,0,0,0,0,0,0,,0,,,1,0,,0,0,0,0,0,0,0,0.675,,29368.42135000000
26,Ralph David Abernathy Plaza,G,V,4,R.D. Abernathy at Formwalt St.,0.32589266121,30312,0,0,0,0,0,0,0,0,,,0,,0,,,0,0,,,0,0,0,0,0,0,0.326,,14184.16032000000
27,Ralph David Abernathy Median,G,V,4,,0.28906523941,30312,0,0,0,0,0,0,0,0,,,0,,0,,,0,0,,,0,0,0,0,0,0,0.289,,12581.32896000000
28,Spring Valley Jewish Corner,G,F,6,Spring Valley Ln. at University Dr. NE,0.06909665508,30306,0,0,0,0,0,0,0,0,0,0,0,,0,,,0,0,,0,0,0,0,0,0,0,0.069,,3007.18984000000
29,Tanyard Creek Urban Forest,NP,E,8,"1997 WALTHALL DRIVE
",6.28649604028,30309,0,0,0,0,0,0,0,0,,,0,,0,,,0,0,,,0,0,0,0,0,0,6.286,,273615.28638000000
30,Helen Drive Park,G,F,6,dead end of Helen Dr./Kay Lane NE,0.02058420180,30306,0,0,0,0,0,0,0,0,0,0,0,,0,,,0,0,,0,0,0,0,0,0,0,0.021,,895.84346000000
31,Edgewater Circle,G,I,11,End of (2440) Edgewater Dr. SW,0.03254420894,30311,0,0,0,0,0,0,0,0,0,0,0,,0,,,0,0,,0,0,0,0,0,0,0,0.033,,1416.56933000000
32,Cativo Circle,G,I,10,700 block (dead end) Cativo Dr. SW,0.03052759511,30311,0,0,0,0,0,0,0,0,0,0,0,,0,,,0,0,,0,0,0,0,0,0,0,0.031,,1328.80925000000
33,Cativo and Dogwood Beauty Spot,G,I,10,Cativo Dr./Dogwood Ct.,0.02456751537,30311,0,0,0,0,0,0,0,0,0,0,0,,0,,,0,0,,0,0,0,0,0,0,0,0.025,,1069.36803000000
34,Carver Circle,G,J,3,off Tiger Flowers Dr. NW,0.01729899124,30314,0,0,0,0,0,0,0,0,0,0,0,,0,,,0,0,,0,0,0,0,0,0,0,0.017,,752.97497000000
35,Mayson Ravine,CN,B,7,E. Club Ln at Davidson Ave,3.19996640160,30319,0,0,0,0,0,0,0,0,,,0,,0,,,0,0,,,0,0,0,0,0,0,2.700,,139268.87629000000
36,Holderness/Lucile Park,G,T,4,471 Holderness Ave. SW (at Lucile Ave.),0.17468226907,30310,0,0,0,0,0,0,0,0,,,0,,0,,,0,0,,,0,0,0,0,0,0,0.175,,7603.16611000000
37,Emma Lane,CN,B,7,Emma Lane,6.31357145423,30342,0,0,0,0,0,0,0,0,,,0,,0,,,0,0,,,0,0,0,0,0,0,8.800,,274786.42337000000
38,Greenbriar,CN,R,11,SE side of Greenbriar Pkwy,6.88798335743,30331,0,0,0,0,0,0,0,0,,,0,,0,,,0,0,,,0,0,0,0,0,0,7.049,,299828.13294000000
39,Cumberlander,CN,I,10,Ivan Hill Circle,8.51293095067,30311,0,0,0,0,0,0,0,0,,,0,,0,,,0,0,,,0,0,0,0,0,0,8.665,,370557.29786000000
40,Falling Water,CN,R,11,Panther Trail,25.80041766750,30311,0,0,0,0,0,0,0,0,,,0,,0,,,0,0,,,0,0,0,0,0,0,25.840,,1123065.31294000000
41,Lionel Hampton,NP,I,10,Willis Mill Rd,49.38402369560,30311,0,0,0,0,0,0,0,0,,,0,,0,,,0,0,,,0,0,0,0,0,0,48.440,,2149573.13538000000
42,Swann Preserve,NP,"Y, Z",12,Bromack Dr,33.89339842280,30315,0,0,0,0,0,0,0,0,,,0,,0,,,0,0,,,0,0,0,0,0,0,34.280,,2197322.75748000000
43,Herbert Greene,NP,H,10,Boulder Park Drive,61.19633308270,30331,0,0,0,0,0,0,0,0,,,0,,0,,,0,0,,,0,0,0,0,0,0,56.440,,2663939.78544000000
44,Vine City Park,B,L,3,Walnut St. NW,0.89095867633,30314,0,0,0,0,0,0,0,0,,,0,,0,0,0,0,0,,,0,0,0,0,0,0,1.087,,60671.18058000000
45,Summerhill Triangle,G,V,5,Fulton St/Sydney St,0.55593566811,30312,0,0,0,0,0,0,0,0,,,0,,0,,,0,0,,,0,0,0,0,0,0,0.265,,24196.12939000000
46,Kirkwood Greenway,CN,O,5,Dixie St/Rogers St/Bixby St,6.32000000000,30317,0,0,0,0,0,0,0,0,,,0,,0,,,0,0,,,0,0,0,0,0,0,6.500,,276399.47539000000
47,Adamsville Park (Old),SF,H,10,3404 Delmar Lane SW,0.81816591804,30331,0,0,0,0,1,0,0,0,0,0,0,,0,,,0,0,,1,0,0,0,0,1,0,1.430,,62407.34035000000
48,Harwell Heights Park,C,I,10,3114 Collier Dr. NW,24.44272044630,30318,0,0,0,1,0,2,0,0,0,0,1,,3,,,1,0,,0,0,0,0,0,0,0,23.400,,1063966.71853000000
49,Anderson Park,C,J,3,98 Anderson Ave. NW,55.77453143940,30314,1,0,1,1,3,0,6,1,0,0,2,,3,1,0.25,0,0,1,1,1,0,0,0,0,0,56.700,Anerson Park,2427696.79683000000
50,Perkerson Park,C,X,12,770 Deckner Ave. SW,48.64460919320,30310,0,0,1,1,0,0,0,0,1,40,3,,6,,,2,0,,0,1,0,0,0,0,0,49.900,Perkerson,2117247.09712000000
51,Grant Park,R,W,1,840 Cherokee Ave. SE (at Sydney St./ Boulevard),130.63102068200,30312,0,0,2,2,4,1,42,5,1,500,2,1,4,,,1,0,1,1,1,0,0,0,0,0,131.500,Grant,5685400.68352000000
52,Thomasville Park,C,Z,1,1835 Henry Thomas Drive SE,18.63259919370,30315,0,0,0,1,1,0,0,1,0,0,1,,1,,,1,0,1,1,1,0,0,0,0,0,44.090,Thomasville,810926.87529000000
53,Washington Park,C,K,3,"102 Ollie St. NW, at Lena St.",19.93582450790,30314,1,0,1,1,2,0,1,1,1,0,2,,8,1,0.25,0,0,,0,1,0,0,0,1,0,20.430,,867714.60203000000
54,Piedmont Park,R,E,6,"400 Park Dr. NE
",171.09398455500,,4,0,2,2,0,1,0,0,3,80,4,2,12,4,4.49,0,0,1,0,0,0,1,0,0,0,185.000,,7446501.02010000000
55,Candler Park,C,N,6,1500 McLendon Ave. NE,51.24011316020,30307,1,0,0,1,0,0,0,0,,0,1,1,4,,,1,0,1,0,0,0,0,0,0,1,55.300,,2230016.57737000000
56,Bessie Branham Park,C,O,5,2051 Delano Dr. at Norwood Ave. SE,6.71758217465,30317,0,0,0,1,0,0,3,0,0,0,1,,2,,,1,0,,0,1,0,0,0,0,0,6.580,Bessie Branham,292349.68458000000
57,Deerwood Park,N,P,11,"Alexandria Dr./Tampa Trail, SW",17.16623096020,30331,0,0,0,1,2,0,0,2,0,0,1,,2,,,1,0,,0,0,0,0,0,0,0,17.400,,747244.79609000000
58,Beecher Triangle,G,I,11,Beecher Cir./Beecher Rd. SW,0.01661567922,30311,0,0,0,0,0,0,0,0,0,0,0,,0,,,0,0,,0,0,0,0,0,0,0,0.017,,723.23291000000
59,Sandpiper Circle,G,I,11,2853 (end of) Sandpiper Circle SW,0.06238094069,30311,0,0,0,0,0,0,0,0,0,0,0,,0,,,0,0,,0,0,0,0,0,0,0,0.062,,2715.35084000000
60,West Manor Park,C,I,10,3240 W. Manor Cir. SW at Benjamin E. Mays Dr.,10.46014930290,30311,0,0,0,1,0,0,0,0,0,0,1,,2,,,0,0,,0,1,0,0,0,0,0,11.200,Anthony Flanagan,455318.95794000000
61,Veltre Circle,G,I,11,2718 (end of) Veltre Place SW,0.17782368128,30311,0,0,0,0,0,0,0,0,0,0,0,,0,,,0,0,,0,0,0,0,0,0,0,0.178,,7740.34303000000
62,Sandtown Triangle,G,R,11,Cascade Rd./Sandtown Ave. SW,0.13930588275,30311,0,0,0,0,0,0,0,0,0,0,0,,0,,,0,0,,0,0,0,0,0,0,0,0.139,,6063.56843000000
63,Pollard and Albany Beauty Spot,G,R,11,"1468 POLLARD DRIVE
",0.09365989942,30311,0,0,0,0,0,0,0,0,,,0,,0,,,0,0,,,0,0,0,0,0,0,0.094,,4076.74666000000
64,Stone Hogan Park,N,R,11,Stone Hogan Rd./St Hogan Conn. SW,10.81079415270,30331,0,0,2,1,0,0,0,2,0,0,0,,0,,,1,0,,0,0,0,0,0,0,0,10.500,,470584.13523000000
65,Fountainebleau Beauty Spot,G,R,11,Hogan Rd./Fontainebleau SW,0.04478571666,30331,0,0,0,0,0,0,0,0,0,0,0,,0,,,0,0,,0,0,0,0,0,0,0,0.045,,1949.46488000000
66,Rawson-Washington Park,N,V,5,Connally St./Kelly St. NE,4.48813225290,30312,0,0,0,1,0,0,0,0,0,0,0,,2,,,1,0,,0,0,0,0,0,0,0,4.490,,195337.72697000000
67,Fulton-Pryor Island,G,V,4,Fulton St./Pryor St. SE,0.11969573842,30312,0,0,0,0,0,0,0,0,0,0,0,,0,,,0,0,,0,0,0,0,0,0,0,0.120,,5209.61797000000
68,Adair Park I,N,V,4,742 Catherine St. SW,6.27109063281,30310,0,0,0,1,0,0,0,0,0,0,1,,0,,,1,0,,0,0,0,0,0,0,0,6.390,,272947.56990000000
69,Bonnie Brae Park,B,V,4,Tift Ave at Bonnie Brae Ave. SE,0.19046235122,30310,0,0,0,1,0,0,0,0,0,0,0,,0,,,0,0,,0,0,0,0,0,0,0,0.190,,8289.80578000000
70,Rose Circle Triangle,G,T,4,Rose Circle at Lee Street SW,0.20510599475,30310,0,0,0,0,0,0,0,0,0,0,0,,0,,,0,0,,0,0,0,0,0,0,0,0.205,,8927.22309000000
71,Adair Park II,N,V,4,866 Murphy Ave. SW,10.57246885990,30310,0,0,0,1,5,0,0,2,0,0,1,,2,,,1,0,,0,0,1,0,0,0,0,10.600,,460164.48407000000
72,Manigault Street Playlot,B,N,5,1000 Manigault St. SE,0.21683244765,30316,0,0,0,0,0,0,0,0,0,0,0,,0,,,0,0,,0,0,0,0,0,0,0,0.217,,9436.94001000000
73,Springvale Park,N,N,2,Euclid Ave. at Waverly Way NE,4.27623823253,30307,0,0,0,1,0,0,0,0,0,0,0,,0,,,0,0,,0,0,0,0,0,0,0,4.600,,186110.36226000000
74,Inman Park,G,N,2,Euclid Ave./Edgewood Ave. NE,0.27871559414,30307,0,0,0,0,0,0,0,0,0,0,0,,0,,,0,0,,0,0,0,0,0,0,0,0.279,,12130.22935000000
75,Delta Park,G,N,2,"Edgewood Ave./Delta Place, NE",0.22277500543,30307,0,0,0,0,0,0,0,0,0,0,0,,0,,,0,0,,0,0,0,0,0,0,0,0.223,,9695.62818000000
76,Bass Recreation Center,SF,N,2,326 Moreland Ave. NE,1.05405375235,30307,0,0,0,0,0,0,0,0,0,0,0,,0,,,0,0,,0,1,0,0,0,0,0,1.000,,45874.07765000000
77,Findley Plaza,B,N,2,Euclid Ave/Moreland Ave. NE,0.11340310693,30307,0,0,0,0,0,0,0,0,0,0,0,,0,,,0,0,,0,0,0,0,0,0,0,0.113,,4935.49873000000
78,Iverson Park,N,N,6,"1429 Iverson St. NE, near Candler MARTA",2.00488518784,30307,0,0,0,1,2,0,0,0,0,0,1,1,0,,,0,0,,0,0,0,0,0,0,0,2.005,,87254.72561000000
79,Lake Claire Park,N,N,5,430 Lakeshore Dr. near McLendon Ave. NE,4.27070691071,30307,0,0,0,1,1,0,1,0,0,0,1,,1,,,0,0,,0,0,0,0,0,0,0,5.400,,213701.15211000000
80,Goldsboro Park,N,N,6,1368 Euclid Ave. NE at Goldsboro Rd.,2.52502625406,30307,0,0,0,0,0,0,0,0,0,0,0,,2,,,1,0,,0,0,0,0,0,0,0,2.500,,109892.24550000000
81,Springdale Park,N,N,6,1247 Ponce de Leon Ave. NE (at Springdale Rd.),5.24635394169,30306,0,0,0,1,0,0,0,0,0,0,0,,0,,,0,0,,0,0,0,0,0,0,0,5.246,,228328.68777000000
82,Virgilee Park,N,N,6,1324 Ponce de Leon Ave. NE (at Oakdale Rd.),3.49942369171,30306,0,0,0,0,0,0,0,0,0,0,0,,0,1,,0,0,,0,0,0,0,0,0,0,3.499,,152299.32815000000
83,Shadyside Park,N,N,6,1635 Ponce de Leon Ave. NE (Clifton Rd. to Fairvie,4.07492505467,30307,0,0,0,0,0,0,0,0,0,0,0,,0,1,,0,0,,0,0,0,0,0,0,0,4.075,,177343.93629000000
84,Dellwood Park,N,N,6,Ponce de Leon Ave. NE (Clifton Rd. to Lakeshore Dr,1.35560501665,30307,0,1,0,0,0,0,0,0,0,0,0,,0,1,,0,0,,0,0,0,0,0,0,0,1.356,,58996.79691000000
85,Freedom Park,R,N,2,Moreland Ave at North Ave NE,123.83916963100,30307,1,0,0,1,0,0,0,0,,,0,,0,1,3.5,0,0,,,0,0,0,0,0,0,188.589,,5455849.61162000000
86,Peachtree Battle Parkway,G,C,8,Peachtree Battle Av. NW/Ptree-Dellwood Dr.,4.21522150480,30305,0,0,0,0,0,0,0,0,0,0,0,,0,,,0,0,,0,0,0,0,0,0,0,4.215,,183463.10135000000
88,Sibley Park,CN,B,8,W. Wesley Rd. at Habersham Rd. NW,6.86566388453,30305,0,0,0,0,0,0,0,0,0,0,0,,0,,,0,0,,0,0,0,0,0,0,0,1.600,,371332.83751000000
89,E. Pine Valley and W. Pine Valley Park,G,C,8,E. Pine Valley Rd. at W Pine Valley Rd. NW,0.03579793071,30305,0,0,0,0,0,0,0,0,0,0,0,,0,,,0,0,,0,0,0,0,0,0,0,0.036,,1558.07390000000
90,Ardmore Park,B,E,8,Ardmore Rd. off Collier Rd. NW,1.67788880581,30309,0,0,0,1,0,0,2,0,0,0,0,,0,,,0,0,,0,0,0,0,0,0,0,1.740,,73028.79856000000
91,Spring Valley Park,CN,C,8,Spring Valley Rd. at Meredith Dr. NW,3.55073542838,30318,0,0,0,0,0,0,0,0,0,0,0,,0,,,0,0,,0,0,0,0,0,0,0,3.551,,154544.38766000000
92,Springlake Park,CN,C,8,Northside Dr./Norfleet Rd./Springlake Dr. NW,5.30848085665,30305,0,0,0,0,0,0,0,0,0,0,0,,0,,,0,0,,0,0,0,0,0,0,0,5.200,,231050.40119000000
93,Ellsworth Park,B,C,8,Howell Mill Rd. at Collier Rd. NW,1.27193201928,30318,0,0,0,1,0,0,0,0,0,0,0,,0,,,0,0,,0,0,0,0,0,0,0,1.272,,55360.72477000000
94,Channing Valley Park,B,C,8,Channing Dr. at Sunbury Pl. NW,0.58190689809,30318,0,0,0,1,0,0,2,0,0,0,0,,0,,,0,0,,0,0,0,0,0,0,0,0.582,,25327.31063000000
95,McKinley-Wilson Circle,G,C,8,McKinley Rd./Wilson Rd. NW,0.05449395646,30318,0,0,0,0,0,0,0,0,0,0,0,,0,,,0,0,,0,0,0,0,0,0,0,0.054,,2371.83389000000
96,Howell Mill at Glenbrook Park,G,C,8,Howell Mill Rd./Glenbrook Dr. NW,0.01863514479,30318,0,0,0,0,0,0,0,0,0,0,0,,0,,,0,0,,0,0,0,0,0,0,0,0.019,,811.09578000000
97,Castlewood Triangle,G,C,8,Castlewood Dr. NW at Edinboro Rd.,0.40887180570,30327,0,0,0,0,0,0,1,0,0,0,0,,0,,,0,0,,0,0,0,0,0,0,0,0.409,,17796.03321000000
98,Mornington Circle,G,C,8,End of Mornington Dr. NW,0.15646663376,30327,0,0,0,0,0,0,0,0,0,0,0,,0,,,0,0,,0,0,0,0,0,0,0,0.156,,6810.17918000000
99,Moores Mill-Northside Pkwy Triangle,G,C,8,Moores Mill Rd./N'side Pkwy. NW,0.03497278639,30327,0,0,0,0,0,0,0,0,0,0,0,,0,,,0,0,,0,0,0,0,0,0,0,0.035,,1522.20168000000
158,Peachtree Hills Park,C,B,7,308 Peachtree Hills Ave. NE,7.51480215261,30305,0,0,0,1,1,0,0,0,0,0,1,,3,,,0,0,,1,1,0,0,0,0,0,7.200,Peachtree Hills,327067.36973000000
159,Alexander Park,CN,B,7,E. Wesley Rd. at Alexander Dr. NW,10.95496247670,30305,0,0,0,0,0,0,0,0,0,0,0,,0,,,0,0,,0,0,0,0,0,0,0,11.600,,476793.56846000000
160,Birchwood-Arlene Triangle,G,B,7,"Birchwood Dr./Arlene Way, NE",0.04565597424,30305,0,0,0,0,0,0,0,0,0,0,0,,0,,,0,0,,0,0,0,0,0,0,0,0.046,,1987.07989000000
161,Sunnybrook Park,N,B,7,Pinetree Dr. at Brentwood Dr. NE,2.20618289674,30305,0,0,0,0,0,0,0,0,0,0,0,,0,,,0,0,,0,0,0,0,0,0,0,2.400,,96019.88170000000
163,Pharr Circle Park,G,B,8,End of N. Pharr Ct. NW,0.28065958096,30305,0,0,0,0,0,0,0,0,0,0,0,,0,,,0,0,,0,0,0,0,0,0,0,0.281,,12215.31089000000
164,Rumson Road Circle,G,B,7,Rumson Rd./Rumson Way NE,0.03224847422,30305,0,0,0,0,0,0,0,0,0,0,0,,0,,,0,0,,0,0,0,0,0,0,0,0.032,,1403.56395000000
165,Virginia Highland Triangle,G,F,6,Virginia Av./N. Highland Ave. NE,0.05368539982,30306,0,0,0,0,0,0,0,0,0,0,0,,0,,,0,0,,0,0,0,0,0,0,0,0.054,,2336.49013000000
166,Todd Street Triangle,G,F,6,Todd Rd. at Adair Ave. NE,0.02404328817,30306,0,0,0,0,0,0,0,0,0,0,0,,0,,,0,0,,0,0,0,0,0,0,0,0.024,,1046.40217000000
167,Sunken Garden Park,B,F,6,1000 E. Rock Springs Rd. NE,0.92122669759,30306,0,0,0,1,0,0,0,0,0,0,0,,0,,,0,0,,0,0,0,0,0,0,0,0.921,,40093.54791000000
168,Lenox-Wildwood Park,N,F,6,1760 Lenox Rd. NE,8.46565488123,30306,0,0,0,1,0,0,0,0,0,0,0,,2,,,0,0,,0,0,0,0,0,0,0,8.466,,368440.61023000000
169,Lenox and Johnson Road Park,G,F,6,Lenox Rd. at Johnson Rd. NE,0.04752927572,30306,0,0,0,0,0,0,0,0,0,0,0,,0,,,0,0,,0,0,0,0,0,0,0,0.048,,2068.54851000000
170,Robin Lane Park,G,F,6,End of Robin Lane NE,0.01992635926,30306,0,0,0,0,0,0,0,0,0,0,0,,0,,,0,0,,0,0,0,0,0,0,0,0.020,,867.23288000000
171,Wildwood Place,G,F,6,End of Wildwood Place NE,0.04808892909,30324,0,0,0,0,0,0,0,0,0,0,0,,0,,,0,0,,0,0,0,0,0,0,0,0.048,,2092.94160000000
172,Wildwood Gardens Park,B,F,6,735 Wildwood Rd. NE,1.56046199321,30324,0,0,0,0,0,0,0,0,0,0,0,,0,,,0,0,,0,0,0,0,0,0,0,1.560,,67915.01602000000
173,Wilson Park Triangle,G,F,6,E. Morningside Dr./N. Rock Springs Rd. NE,0.12260777678,30324,0,0,0,0,0,0,0,0,0,0,0,,0,,,0,0,,0,0,0,0,0,0,0,0.123,,5336.17914000000
174,E. Rock Springs Triangle,G,F,6,E. Rock Springs Rd./N Pelham Rd. NE,0.12486180343,30324,0,0,0,0,0,0,0,0,0,0,0,,0,,,0,0,,0,0,0,0,0,0,0,0.125,,5434.24042000000
175,Sidney Marcus Park,N,F,6,786 Cumberland Rd. NE,2.68582130944,30306,0,0,0,1,0,0,0,0,0,0,0,,0,,,0,0,,0,0,0,0,0,0,0,2.686,,116892.95251000000
176,Smith Park,G,F,6,1571 Piedmont Ave. NE at 1547 Monroe Dr.,0.40611064302,30324,0,0,0,0,0,0,0,0,0,0,0,,0,,,0,0,,0,0,0,0,0,0,0,0.406,,17675.00266000000
177,Orme Park,N,F,6,795 Brookridge Dr. NE,6.25957579186,30306,0,1,0,1,0,0,2,0,0,0,0,,0,1,0.1,0,0,,0,0,0,0,0,0,0,6.600,,272430.68972000000
178,John Howell Memorial Park,N,F,6,"797, 833 & 869 Virginia Ave. NE",3.11700920477,30306,0,0,0,1,0,0,0,0,0,0,0,,0,,,0,1,,0,0,0,0,0,0,0,2.800,,135658.92515000000
179,North Highland Terrace Park,G,F,6,N. Highland Terr. near Amsterdam Ave. NE,0.04216350983,30306,0,0,0,0,0,0,0,0,0,0,0,,0,,,0,0,,0,0,0,0,0,0,0,0.042,,1835.05215000000
180,Orme Triangle,G,F,6,Orme Circle at Elkmont Dr. NE,0.03951817638,30306,0,0,0,0,0,0,0,0,0,0,0,,0,,,0,0,,0,0,0,0,0,0,0,0.040,,1719.93086000000
181,Beverly-Montgomery Ferry Triangle,G,E,6,Beverly Rd./Montgomery Ferry Dr. NE,0.02169505595,30309,0,0,0,0,0,0,0,0,0,0,0,,0,,,0,0,,0,0,0,0,0,0,0,0.022,,944.23738000000
182,Beverly-Polo Triangle,G,E,6,Beverly Rd./Polo Dr. NE,0.02286570555,30309,0,0,0,0,0,0,0,0,0,0,0,,0,,,0,0,,0,0,0,0,0,0,0,0.023,,995.19288000000
183,Beverly-Avery Triangle,G,E,6,Beverly Rd./Avery Dr. NE,0.04409906199,30309,0,0,0,0,0,0,0,0,0,0,0,,0,,,0,0,,0,0,0,0,0,0,0,0.044,,1919.32230000000
184,Beverly-Avery Circle,G,E,6,Beverly Rd./Avery Cir. NE,0.03481398563,30309,0,0,0,0,0,0,0,0,0,0,0,,0,,,0,0,,0,0,0,0,0,0,0,0.035,,1515.20539000000
185,Maddox-Avery Triangle,G,E,6,Maddox Dr./Avery Dr. NE,0.04822110567,30309,0,0,0,0,0,0,0,0,0,0,0,,0,,,0,0,,0,0,0,0,0,0,0,0.048,,2098.70678000000
186,Montgomery Ferry/Golf Cir. Triangle,G,E,6,Montgomery Ferry Rd./Golf Cir. NE,0.02490262126,30309,0,0,0,0,0,0,0,0,0,0,0,,0,,,0,0,,0,0,0,0,0,0,0,0.025,,1083.83842000000
187,Zimmer Drive Circle,G,F,6,Zimmer Dr. off N. Highland Ave. NE,0.03758677413,30306,0,0,0,0,0,0,0,0,0,0,0,,0,,,0,0,,0,0,0,0,0,0,0,0.038,,1635.82874000000
188,Hickory Grove Park,G,F,6,Homestead Ave. & Inverness Ave. NE,0.40959397459,30306,0,0,0,0,0,0,0,0,0,0,0,,0,,,0,0,,0,0,0,0,0,0,0,0.410,,17826.14524000000
189,Noble Park,B,F,6,1710 Noble Dr. NE,0.40476144955,30306,0,0,0,1,0,0,0,0,0,0,0,,0,,,0,0,,0,0,0,0,0,0,0,0.405,,17615.79949000000
190,Homestead Park,G,F,6,Meadowdale Av. at Homestead Av. NE,0.15108863729,30306,0,0,0,0,0,0,0,0,0,0,0,,0,,,0,0,,0,0,0,0,0,0,0,0.151,,6575.60931000000
191,Beech Valley Triangle,G,F,6,Beech Valley Rd. NE at Beech Val. Way,0.36386153067,30306,0,0,0,0,0,0,0,0,0,0,0,,0,,,0,0,,0,0,0,0,0,0,0,0.364,,15835.75807000000
192,Greenwood-Charles Allen Triangle,G,E,6,Greenwood Av./Charles Allen Dr. NE,0.03563218003,30308,0,0,0,0,0,0,0,0,0,0,0,,0,,,0,0,,0,0,0,0,0,0,0,0.036,,1550.80507000000
193,Vedado-Greenwood Triangle,G,E,6,Vedado Way/Greenwood Ave. NE,0.07488639658,30308,0,0,0,0,0,0,0,0,0,0,0,,0,,,0,0,,0,0,0,0,0,0,0,0.075,,3259.26011000000
194,Ray Kluka Memorial Park,G,E,6,Greenwood Ave.Monroe Dr. NE,0.04522558048,30308,0,0,0,0,0,0,0,0,0,0,0,,0,,,0,0,,0,0,0,0,0,0,0,0.045,,1968.33199000000
195,Eubanks (The Prado) Park,B,E,6,The Prado and Barksdale Dr. NE,1.36871346808,30309,0,0,0,0,0,0,0,0,0,0,0,,0,,,0,0,,0,0,0,0,0,0,0,1.369,,59570.64387000000
196,McClatchey Park,N,E,6,Avery Dr. and Westminister Dr. NE,4.91363843484,30309,0,0,0,1,0,1,0,0,0,20,0,,3,,,0,0,,0,0,0,0,0,0,0,5.000,,213855.80537000000
197,Ansley Park,N,E,6,"Maddox Dr./E. Park Lane, NE",6.11217073600,30309,0,0,0,0,0,0,0,0,0,0,0,,0,,,0,0,,0,0,0,0,0,0,0,6.112,,266020.06770000000
198,Prado-Westminster Triangle,G,E,6,The Prado/Westminister Dr. NE,0.07237565070,30309,0,0,0,0,0,0,0,0,0,0,0,,0,,,0,0,,0,0,0,0,0,0,0,0.072,,3150.02534000000
199,Prado-South Prado Circle,G,E,6,The Prado/South Prado NE,0.03014059048,30309,0,0,0,0,0,0,0,0,0,0,0,,0,,,0,0,,0,0,0,0,0,0,0,0.030,,1311.81157000000
200,Prado-Piedmont Beauty Spot,G,E,6,The Prado/Piedmont Rd. NE,0.11758529370,30309,0,0,0,0,0,0,0,0,0,0,0,,0,,,0,0,,0,0,0,0,0,0,0,0.118,,5117.66344000000
201,Westminster Park,G,E,6,Westminister Dr./Park Lane NE,0.01222828507,30309,0,0,0,0,0,0,0,0,0,0,0,,0,,,0,0,,0,0,0,0,0,0,0,0.012,,532.21059000000
202,Avery-E. Park Lane Triangle,G,E,6,Avery Dr/E. Park Lane NE,0.04657399015,30309,0,0,0,0,0,0,0,0,0,0,0,,0,,,0,0,,0,0,0,0,0,0,0,0.047,,2027.03407000000
203,Piedmont-Avery Triangle,G,E,6,Piedmont Ave./Avery Dr. NE,0.04030453867,30309,0,0,0,0,0,0,0,0,0,0,0,,0,,,0,0,,0,0,0,0,0,0,0,0.040,,1754.17636000000
204,Prado at 17th St Triangle,G,E,6,The Prado/17th Street NE,0.12632154032,30309,0,0,0,0,0,0,0,0,0,0,0,,0,,,0,0,,0,0,0,0,0,0,0,0.126,,5497.90041000000
205,Yonah Park,B,E,6,Yonah Dr./15th St. NE,2.01939175302,30309,0,0,0,0,0,0,0,0,0,0,0,,0,,,0,0,,0,0,0,0,0,0,0,1.900,,87890.44289000000
206,Winn Park,N,E,6,Westminister Dr. at Lafayette Dr. NE,10.00391878500,30309,0,0,0,1,0,0,0,0,0,0,0,,0,,,0,0,,0,0,0,0,0,0,0,10.300,,435402.47174000000
207,Peachtree Cir. at 15th St. Triangle,G,E,6,Peachtree Cir./15th Street NE,0.10739784778,30309,0,0,0,0,0,0,0,0,0,0,0,,0,,,0,0,,0,0,0,0,0,0,0,0.107,,4674.33430000000
208,Lafayette-15th Street Triangle,G,E,6,"Lafayette Dr./15th Street, NE",0.04257074739,30309,0,0,0,0,0,0,0,0,0,0,0,,0,,,0,0,,0,0,0,0,0,0,0,0.043,,1852.82297000000
209,Inman Circle at 17th St Park,G,E,6,Inman Cir./17th Street NE,0.03097509826,30309,0,0,0,0,0,0,0,0,0,0,0,,0,,,0,0,,0,0,0,0,0,0,0,0.031,,1348.13563000000
210,Prado at Inman Circle Park,G,E,6,The Prado/Inman Circle NE,0.40153387205,30309,0,0,0,0,0,0,0,0,0,0,0,,0,,,0,0,,0,0,0,0,0,0,0,0.402,,17476.02822000000
211,Prado-Maddox Triangle,G,E,6,The Prado/Maddox Dr. NE,0.12928417638,30309,0,0,0,0,0,0,0,0,0,0,0,,0,,,0,0,,0,0,0,0,0,0,0,0.129,,5626.86214000000
212,Prado-Peachtree Circle Triangle,G,E,6,"The Prado/Peachtree Circle, NE",0.05041698356,30309,0,0,0,0,0,0,0,0,0,0,0,,0,,,0,0,,0,0,0,0,0,0,0,0.050,,2194.33544000000
213,Peachtree at 15th St. Park,G,E,6,Peachtree St./15th Street NE,0.05201934612,30309,0,0,0,0,0,0,0,0,0,0,0,,0,,,0,0,,0,0,0,0,0,0,0,0.052,,2264.05632000000
214,Pershing Point Park,G,E,2,Peachtree St. at W. P'tree St. NE,0.33001967061,30309,0,0,0,0,0,0,0,0,0,0,0,,0,,,0,0,,0,0,0,0,0,0,0,0.330,,14363.64253000000
215,Loring Heights Park,B,E,8,Loring Dr at Garden Lane NW,1.93768720740,30309,0,0,0,0,0,0,3,1,0,0,0,,0,,,0,0,,0,0,0,0,0,0,0,1.900,,84336.17433000000
216,Chattahoochee Park,N,D,9,Bolton Rd. at Peyton Rd. NW,3.20477947742,30318,0,0,0,0,0,0,0,0,0,0,0,,0,,,1,0,,0,0,0,0,0,0,0,3.205,,139498.95095000000
217,Abner Place Park,G,G,9,Across from 2539 Abner Pl. NW,0.36561892350,30318,0,0,0,1,1,0,0,0,0,0,0,,0,,,0,0,,0,0,0,0,0,0,0,0.366,,15914.56266000000
218,Lillian Cooper Shepherd Park,N,G,9,2886 Argyle Dr. NW,2.25591294517,30318,0,0,0,1,0,0,1,1,0,0,0,,0,1,0.25,1,0,,0,0,0,0,0,0,0,2.300,,98196.24646000000
219,A.D. Williams Park,C,G,9,"1154 James Jackson Parkway, NW",10.46521307130,30318,0,0,0,0,0,0,0,0,0,0,2,,0,,,1,0,,0,1,0,0,0,0,0,11.000,A.D. Williams,455532.75491000000
220,English Park,N,G,9,1350 Bolton Rd. NW,9.47702818254,30331,0,0,0,2,0,1,2,1,0,10,1,,1,,,1,1,,0,1,0,0,0,0,0,9.500,English,412527.08286000000
221,Barbara A. McCoy Park,N,S,4,1640 Kenmore St. (entrance); 1641 Avon Ave. SW,8.70578318325,30311,0,0,0,1,0,0,0,0,0,0,0,,0,,,0,0,,0,0,0,0,0,0,0,8.500,,378930.82887000000
222,Havilon Triangle,G,S,10,Havilon Dr./S. Alvarado Ter. SW,0.27070578226,30311,0,0,0,0,0,0,0,0,0,0,0,,0,,,0,0,,0,0,0,0,0,0,0,0.271,,11782.86166000000
223,Charles L. Harper Memorial Park,G,L,3,Ashby St. @ Mayson Turner Rd. NW,1.09903064059,30314,0,0,0,0,0,0,0,0,0,0,0,,0,,,0,0,,0,0,0,0,0,0,0,1.099,,47835.42044000000
224,Haynes Manor Park,N,C,8,Northside Dr./Sagamore Dr./Peachtree Battle Ave.,2.98183499815,30305,0,0,0,0,0,0,0,0,,,0,,0,1,,0,0,,,0,0,0,0,0,0,2.982,,129783.25799000000
225,Tennyson Circle,G,C,8,off Brookview Dr. NW,0.02583516605,30318,0,0,0,0,0,0,0,0,0,0,0,,0,,,0,0,,0,0,0,0,0,0,0,0.026,,1124.48710000000
226,Margaret Mitchell Square,G,M,2,Peachtree St. at Forsyth St. NW,0.04161201443,30303,0,0,0,0,0,0,0,0,0,0,0,,0,,,0,0,,0,0,0,0,0,0,0,0.042,,1811.11344000000
227,Beecher Park,CN,I,11,Edgewater Dr./Beecher Rd. SW,5.18303287780,30311,0,0,0,0,0,0,0,0,0,0,0,,0,,,0,0,,0,0,0,0,0,0,0,5.800,,225604.05333000000
228,Morningside Nature Preserve,NP,F,6,Cheshire Bridge Rd. NE/Woodcliffe Ter./Wildwood Rd,30.76444089890,30324,0,0,0,0,0,0,0,0,,,0,,0,0,0,0,0,,,0,0,0,0,0,0,36.040,,1505771.46648000000
229,Riverside,NP,D,9,James Jackson Pkwy,5.98027304916,30318,0,0,0,0,0,0,0,0,,,0,,0,,,0,0,,,0,0,0,0,0,0,6.850,,260310.94275000000
230,Ashby Circle Playlot,B,K,3,Ashby Cir. off Mayson Turner Rd. NW,0.86972767496,30314,0,0,0,1,0,0,0,0,0,0,0,,0,,,0,0,,0,0,0,0,0,0,0,0.870,,37855.00476000000
231,Browns Mill Golf Course,R,Z,12,"480 Cleveland Ave. SE
",160.13412027600,30315,0,0,0,0,0,0,0,0,,,0,,0,,,0,0,,,0,0,0,0,0,1,163.234,,7201774.96813000000
232,John Calhoun Park,B,M,2,170 Auburn Ave. NE (at Piedmont),0.27963517222,30303,0,0,0,0,0,0,0,0,0,0,0,,0,,,0,0,,0,0,0,0,0,0,0,0.280,,12170.64290000000
233,Center Hill Park,C,J,9,2305 Bankhead Hwy. NW,43.66211049520,30318,0,0,0,1,1,0,2,1,0,0,1,,1,,,2,0,,0,0,0,0,0,0,0,46.000,,1900495.25960000000
355,Historic Fourth Ward Park,N,M,2,664 Angier Avenue,0.00000000000,30308,0,0,0,1,0,0,0,0,,,0,,0,,,0,0,,,0,0,0,0,0,0,18.200,,806351.00784000000
234,Central Park,C,M,2,400 Merritts Ave. NE,17.37087869010,30308,0,0,0,1,0,0,0,0,0,0,2,,4,,,2,0,,1,1,0,0,0,0,0,17.370,Central,756032.18330000000
235,Collier Park,C,H,10,3691 Collier Drive SW,16.17206413860,30331,0,0,0,1,1,0,2,1,,0,1,,2,,,1,0,,0,1,0,0,0,0,0,16.172,Colier,703966.65362000000
236,D.H. Stanton Park,N,V,1,213 Haygood Ave. SE,8.13457397530,30315,0,0,0,1,0,0,0,0,0,0,1,,0,,,0,0,,1,1,0,0,0,0,0,8.320,,372933.39576000000
237,East Lake Park,C,O,5,2617 Memorial Dr. SE/ 241 Daniel St./ 2616-2546  A,9.79574029999,30317,0,0,0,1,4,0,0,4,,0,1,,2,,,1,0,,0,1,0,0,0,0,0,10.300,Zaban,454762.44554000000
238,Esther Peachey Lefever,B,N,5,Wylie St.at Powell St. SE,0.69618891188,30316,0,0,0,1,0,0,0,1,0,0,0,,0,,,0,0,,0,0,0,0,0,0,0,0.696,,30299.80590000000
239,Frankie Allen Park,C,B,7,100 Bagley St,22.69659127300,30305,0,0,0,1,0,0,8,4,,0,1,,4,,,0,0,,0,0,0,0,0,0,0,21.630,,1005562.97515000000
240,Garden Hills Park,N,B,7,E. Wesley at Rumson Rd.,3.39933238290,30305,0,0,0,1,0,0,0,0,0,0,0,,0,,,0,0,1,0,1,0,0,0,0,0,3.600,,147949.51418000000
241,Harper Park,N,Z,12,Wilson Rd /Southside Industrial Parkway /Harper Bl,13.56864851270,30354,0,0,0,1,2,0,0,0,0,0,1,,2,,,2,0,,0,0,0,0,0,0,0,13.569,,590550.07514000000
242,Heritage (Founder's) Park,G,V,1,"Crumley St. SE, between Frazer St. and Reed St.",0.66992672707,30312,0,0,0,0,0,0,0,0,,,0,,0,,,0,0,,,0,0,0,0,0,0,0.670,,29157.50982000000
243,Home Park,B,E,3,1015 Tumlin St./Calhoun St. NW,1.69090451817,30318,0,0,0,1,0,0,0,0,0,0,0,,0,,,0,0,,0,0,0,0,0,0,0,1.800,,73595.27894000000
244,Isabel Gates Webster Park,N,I,10,"275 Peyton Rd. SW, at Peyton Place",14.02321222860,30311,0,0,0,1,2,0,0,1,0,0,1,,2,1,0.25,0,0,,0,0,0,0,1,0,0,15.690,,610404.55373000000
245,John A. White Park,R,S,11,1053 Cascade Cir. SW,106.65294085500,30311,0,0,0,1,5,0,0,5,,0,1,1,8,,,0,0,1,0,0,0,0,0,0,1,106.653,,4642248.23519000000
246,Arthur Langford Jr Park,C,Y,12,211 Thornton St. SW,9.90126401204,30315,0,0,0,1,0,0,1,0,0,0,1,,2,,,2,0,1,0,1,0,0,0,0,0,9.900,Langford,430941.65957000000
247,M.L.K. Natatorium,C,M,2,70 Boulevard NE,10.43250979550,30312,0,0,0,0,0,0,0,0,,0,0,,0,,,0,0,1,0,1,0,0,0,1,0,3.300,,454051.97035000000
248,Maddox Park,C,K,3,"1115 Bankhead Hwy. NW, at Marietta Blvd.",54.63850347970,30318,0,0,1,1,0,0,4,0,0,20,1,,1,,,2,0,1,0,0,0,0,0,0,0,51.500,,2378170.17695000000
249,Melvin Drive Park,C,P,11,3895 Melvin Drive SW,52.34654611950,30331,0,0,0,0,1,0,0,0,0,0,1,,2,,,1,0,,0,0,0,0,0,0,0,48.900,,2278652.43849000000
250,Mozley Park,C,K,3,1565 Martin Luther King Jr. Dr. SW,31.37623254900,30314,1,0,1,1,0,0,8,0,0,0,2,2,2,1,0.2,1,0,1,0,1,0,0,0,0,0,28.150,C.A. Scott,1365690.17669000000
251,Oak Grove Park,N,N,6,1451 Ponce de Leon Ave. NE (Oakdale Rd. to Fairvie,3.43242111360,30307,0,0,0,0,0,0,0,0,0,0,0,,0,1,,0,0,,0,0,0,0,0,0,0,3.432,,149382.70892000000
100,Beaverbrook Park,N,C,8,Brookview Dr. NW at Beaverbrook Dr.,6.97002990086,30318,0,0,0,1,0,0,0,0,0,0,0,,0,,,0,0,,0,0,0,0,0,0,0,6.800,,303372.95028000000
101,Sara J. Gonzalez Park,B,C,9,2411 Coronet Way NW,1.40651422985,30318,0,0,0,1,0,0,0,0,0,0,0,,0,,,0,0,,0,0,0,0,0,0,0,1.407,,61221.04578000000
102,Dill Avenue Park,G,X,12,Manford Rd./Mellview Ave. SE,0.08537503053,30310,0,0,0,0,0,0,0,0,0,0,0,,0,,,0,0,,0,0,0,0,0,0,0,0.085,,3715.90027000000
103,Avery Park-Gilbert House,SF,X,12,2238 Perkerson Rd. SE,10.51079892060,30315,0,0,0,0,0,0,0,0,,0,0,,0,,,0,0,,0,1,0,0,0,0,0,11.030,,457479.03535000000
104,Sylvan Circle Playlot,B,X,12,1950 Sylvan Rd. SW (Sylvan Cir. at Sylvan Way),0.50874931115,30310,0,0,0,1,0,0,0,0,0,0,0,,0,,,0,0,,0,0,0,0,0,0,0,0.509,,22143.27956000000
105,Elinor Place Park,G,J,3,Elinor Place/Bankhead Hwy. NW,0.60488481637,30318,0,0,0,0,0,0,0,0,0,0,0,,0,,,0,0,,0,0,0,0,0,0,0,0.605,,26328.28940000000
106,Grove Park,C,J,3,709 Hortense Place NW,17.35178172850,30318,0,0,0,1,2,1,1,1,0,20,1,,2,,,0,0,,1,1,0,0,0,0,0,17.352,Grove,755258.81812000000
107,Collum Circle Beauty Spot,G,J,3,200 block (end of) Collum St. NW,0.04666800935,30314,0,0,0,0,0,0,0,0,0,0,0,,0,,,0,0,,0,0,0,0,0,0,0,0.047,,2031.32171000000
108,Torrence Circle,G,J,3,160 (end of) Torrence St. NW,0.04611049088,30314,0,0,0,0,0,0,0,0,0,0,0,,0,,,0,0,,0,0,0,0,0,0,0,0.046,,2007.04981000000
109,Spellman-Morehouse Beauty Spot,G,J,3,Spellman St. NW/Morehouse Dr.,0.03472926071,30314,0,0,0,0,0,0,0,0,0,0,0,,0,,,0,0,,0,0,0,0,0,0,0,0.035,,1511.65348000000
110,Tremont Playlot,B,J,3,Tremont Dr. at Dixie Hills Cir. NW,0.17961329038,30314,0,0,0,1,0,0,0,0,0,0,0,,0,,,0,0,,0,0,0,0,0,0,0,0.180,,7817.98732000000
111,Edwin Place Park,N,J,9,Edwin Place/Bankhead Hwy. NW,4.28633357471,30318,0,0,0,0,0,0,0,0,0,0,0,,0,,,0,0,,0,0,0,0,0,0,0,4.286,,186570.01370000000
112,Arlington Circle Playlot,B,J,9,Arlington Cir. (off Baker Rd. NW at North Ave. NW),0.49299467129,30318,0,0,0,1,1,0,0,0,0,0,0,,0,,,0,0,,0,0,0,0,0,0,0,0.493,,21458.69172000000
113,Stoney Point Park,G,W,1,Confederate Ave./Woodland Ave. SE,0.19302012023,30316,0,0,0,0,0,0,0,0,0,0,0,,0,,,0,0,,0,0,0,0,0,0,0,0.193,,8400.56915000000
114,Benteen Park,N,W,1,Benteen Ave. at Casanova St. SE,9.99085329788,30315,0,0,0,1,0,0,0,0,0,0,1,1,0,,,0,0,,0,0,0,0,0,0,0,9.810,,434824.05968000000
115,Selena S. Butler Park,N,M,5,98 William Holmes Borders Dr. NE,3.63160774150,30312,0,0,0,1,0,0,0,0,0,0,0,,2,,,1,0,,0,1,0,0,0,0,0,3.360,Butler,158058.18137000000
116,Hurt Park,B,M,5,25 Courtland St. NE (at Edgewood Ave.),1.86640073100,30303,0,0,0,0,0,0,0,0,0,0,0,,0,,,0,0,,0,0,0,0,0,0,0,1.866,,81232.08821000000
117,Brownwood Park,C,W,5,"1247 Portland Ave, SE",12.66779869410,30316,0,0,1,1,0,0,0,1,,18,0,,3,,,1,1,,0,1,0,0,0,0,0,12.330,Brownwood,551320.31673000000
118,Monument Beauty Spot,G,W,5,Monument Ave./McPherson Ave. SE,0.03072260405,30316,0,0,0,0,0,0,0,0,0,0,0,,0,,,0,0,,0,0,0,0,0,0,0,0.031,,1337.08421000000
119,Gilliam Park,N,O,5,Clifton St./Wade Ave./Wyman St. NE,2.51698089686,30317,0,0,0,0,0,0,0,0,0,0,0,,0,1,0.1,0,0,,0,0,0,0,0,0,0,2.600,,109540.67901000000
120,J.D. Sims Recreation Center,C,M,2,544 Angier Ave. NE,0.84535079025,30308,0,0,0,1,0,0,0,0,0,0,0,,0,,,1,0,,0,1,0,0,0,0,0,0.845,J.D Simms,36791.85763000000
121,Renaissance Park,N,M,2,Piedmont Ave.at Pine St. NE,5.68718197412,30308,0,0,0,0,0,0,0,0,0,0,0,,0,,,0,0,,0,0,0,0,0,0,0,5.400,,247524.25769000000
122,Hardy Ivy Park,G,M,2,310 Peachtree St. NE,0.55723263424,30308,0,0,0,0,0,0,0,0,0,0,0,,0,,,0,0,,0,0,0,0,0,0,0,0.557,,24252.70840000000
123,Robert W. Woodruff Park,C,M,2,91 Peachtree St. NE,3.30427423868,30303,0,0,1,1,0,0,0,0,1,0,0,,0,,,0,0,,0,0,0,0,0,0,0,3.300,,143813.90129000000
124,Walton Spring Park,G,M,2,Spring St./Int'l Blvd./Carnegie Way NW,0.18442745320,30303,0,0,0,0,0,0,0,0,0,0,0,,0,,,0,0,,0,0,0,0,0,0,0,0.184,,8026.93876000000
125,Mitchell-Haynes Park,G,M,3,Haynes St./Mitchell-MLK Conn. SW,0.07814627080,30313,0,0,0,0,0,0,0,0,0,0,0,,0,,,0,0,,0,0,0,0,0,0,0,0.078,,3401.25420000000
126,Cleopas R. Johnson Park,N,T,4,Northside Dr. at Fair St. SW,4.29291916339,30314,1,0,0,1,0,0,0,0,0,0,0,,2,,,1,0,,0,0,0,0,0,0,0,4.300,,186847.13812000000
127,J.F. Kennedy Park,C,L,3,225 Chestnut St./Orr St. NW,2.43075207235,30314,0,0,0,1,1,0,4,1,0,0,1,,0,,,0,0,,0,0,0,0,0,1,0,4.800,,105798.10844000000
128,Ashview Triangle,G,T,4,Westview Dr./Agnes Jones Pl. SW,0.11398028036,30314,0,0,0,0,0,0,0,0,0,0,0,,0,,,0,0,,0,0,0,0,0,0,0,0.114,,4961.03307000000
129,Stafford Circle Park,G,K,3,14 Stafford St. NW near Oleander St. NW,0.03855186596,30314,0,0,0,0,0,0,0,0,0,0,0,,0,,,0,0,,0,0,0,0,0,0,0,0.039,,1677.99115000000
130,Knight Park,N,K,3,1194 Church St. NW,2.68492716325,30318,0,0,0,1,0,0,0,0,0,0,0,,1,,,1,0,,0,0,0,0,0,0,0,2.685,,116863.09997000000
131,Dean Rusk Park,N,T,4,Sells Ave./Lawton St. SW,6.00035481622,30310,1,0,0,1,0,0,0,0,0,0,1,,0,,,0,0,,0,0,0,0,0,0,0,6.000,,261167.27619000000
132,West End Park,N,T,4,1111 Oak St. SW,6.53835271898,30310,0,0,0,1,1,0,0,0,0,0,1,,2,,,1,0,,0,0,0,0,0,0,0,6.370,,284584.73253000000
133,Howell Park,N,T,4,983 Ralph David Abernathy Blvd. SW,2.10366251951,30310,0,0,0,1,0,1,0,0,0,0,0,,0,,,1,0,,0,0,0,0,0,0,0,2.100,,91562.39598000000
134,Rose Circle Park,N,T,4,Rose Circle at White Street SW,2.66931150331,30310,0,0,0,1,0,1,0,0,0,0,0,,0,,,1,0,,0,0,0,0,0,0,0,2.700,,116182.29825000000
135,Queen and White Beauty Spot,G,T,4,Queen St./White St. SW,0.04344265870,30310,0,0,0,0,0,0,0,0,0,0,0,,0,,,0,0,,0,0,0,0,0,0,0,0.043,,1890.86612000000
136,Gordon-White Park,G,T,4,Gordon St./White St. SW,1.85201794060,30310,0,0,0,0,0,0,0,0,0,0,0,,0,,,0,0,,0,0,0,0,0,0,0,1.700,,80610.44680000000
137,Atwood Street Park,G,T,4,Atwood St./White St. SW,0.04848519703,30310,0,0,0,0,0,0,0,0,0,0,0,,0,,,0,0,,0,0,0,0,0,0,0,0.048,,2110.35609000000
138,Enota Place Playlot,B,T,4,Enota Place at Sells Ave. SW,0.30625215296,30310,0,0,0,1,0,0,0,0,0,0,0,,0,,,0,0,,0,0,0,0,0,0,0,0.306,,13329.92318000000
139,Billings Circle,G,Z,1,End of Billings Ave. SE,0.02559453525,30315,0,0,0,0,0,0,0,0,0,0,0,,0,,,0,0,,0,0,0,0,0,0,0,0.026,,1113.92215000000
140,McKay Circle,G,Z,1,End of McCay Dr. SE,0.03976997483,30315,0,0,0,0,0,0,0,0,0,0,0,,0,,,0,0,,0,0,0,0,0,0,0,0.040,,1730.86369000000
141,Tullwater Park,N,Z,1,680 McWilliams Rd. SE,5.37126445126,30315,0,0,0,1,1,0,0,1,0,0,0,,0,,,0,0,,0,0,0,0,0,0,0,5.371,,233769.64922000000
142,Empire Park,N,Z,12,245 Oak Dr. SE,10.06595610720,30354,0,0,0,1,1,0,0,0,0,20,1,,2,,,1,0,,0,0,0,0,0,0,0,11.800,,438103.41046000000
143,Cleveland Avenue Park,N,Z,12,41 Cleveland Ave. SE,5.31597548046,30315,0,0,0,1,0,0,0,0,,42,1,,1,,,1,0,,0,0,1,0,0,0,0,5.860,Cleveland Avenue,231370.19792000000
144,Pryor-Tucker Playlot,B,Z,12,Pryor Rd. at Tucker St. SE,0.18801941093,30315,0,0,0,1,0,0,1,0,0,0,0,,0,,,0,0,,0,0,0,0,0,0,0,0.188,,8183.36442000000
145,Chastain Memorial Park,R,A,8,135 W. Wieuca Rd. NW,249.91152943900,30342,1,0,2,1,3,0,5,2,1,25,6,,9,1,3,0,0,1,1,1,0,0,0,0,1,268.000,Chastain,10877126.40860000000
146,Valley Road and Habersham Park,G,A,8,Valley Rd./Habersham Rd. NW,0.04487782681,30305,0,0,0,0,0,0,0,0,0,0,0,,0,,,0,0,,0,0,0,0,0,0,0,0.045,,1953.24285000000
147,Hillside at Northside Drive Park,G,A,8,Hillside Dr./Northside Dr. NW,0.37830169573,30342,0,0,0,0,0,0,0,0,0,0,0,,0,,,0,0,,0,0,0,0,0,0,0,0.378,,16465.46460000000
148,Broadland and West Conway Park,G,A,8,Broadland Rd. NW at W. Conway Dr.,0.08585663826,30327,0,0,0,0,0,0,0,0,0,0,0,,0,,,0,0,,0,0,0,0,0,0,0,0.086,,3736.90685000000
149,Ranier Circle,G,A,8,End of Ranier Dr. NW,0.00992635086,30327,0,0,0,0,0,0,0,0,0,0,0,,0,,,0,0,,0,0,0,0,0,0,0,0.010,,432.04734000000
150,Shady Valley Park,C,B,7,2720 Shady Valley Dr. NE,11.26341785020,30324,0,0,0,1,0,0,5,0,0,0,1,,3,,,1,0,,0,0,0,0,0,0,0,11.080,,490203.93482000000
151,Lenox Beauty Spot,G,B,7,End of Roxboro Circle NE,0.07969035238,30319,0,0,0,0,0,0,0,0,0,0,0,,0,,,0,0,,0,0,0,0,0,0,0,0.080,,3468.27314000000
152,Vermont Road Park,N,B,7,Vermont Rd. and Calvert Lane NE,2.10086118029,30319,0,0,0,0,0,0,0,0,0,0,0,,0,,,0,0,,0,0,0,0,0,0,0,2.000,,91433.67381000000
153,Mayson Park,CN,B,7,vicinity of 4417 Club Drive NE,2.78925920824,30319,0,0,0,0,0,0,0,0,0,0,0,,0,,,0,0,,0,0,0,0,0,0,0,3.100,,121394.07229000000
154,Club Drive Park,G,B,7,Club Dr./Davidson Ave. NE,0.07650107142,30319,0,0,0,0,0,0,0,0,0,0,0,,0,,,0,0,,0,0,0,0,0,0,0,0.077,,3329.49118000000
155,East Brookhaven and Lakehaven Park,G,B,7,"E. Brookhaven Dr at Lakehaven Dr, NE",0.04676637109,30319,0,0,0,0,0,0,0,0,0,0,0,,0,,,0,0,,0,0,0,0,0,0,0,0.047,,2035.35372000000
156,Davidson and Lakehaven Park,G,B,7,Davidson Ave. at Lakehaven Dr. NE,0.04987301514,30319,0,0,0,0,0,0,0,0,0,0,0,,0,,,0,0,,0,0,0,0,0,0,0,0.050,,2170.55859000000
157,Darlington Circle Park,G,B,7,Darlington Cir. off Burke Rd. NE,0.06428541340,30305,0,0,0,0,0,0,0,0,0,0,0,,0,,,0,0,,0,0,0,0,0,0,0,0.064,,2797.85439000000
329,Boulevard Crossing,N, W, 1,Boulevard Ave & Englewood Ave,21.25220000000,,0,0,0,0,0,0,0,0,,,0,,0,,,0,0,,,0,0,0,0,0,0,21.790,,946304.45542000000
252,Rev. James Orange Park at Oakland City,C,S,4,1305 Oakland Dr. SW at Epworth,14.47776219660,30310,0,0,1,1,3,0,0,4,,25,1,,2,,,0,0,1,0,1,0,0,0,0,0,15.400,Oakland City,630153.99521000000
253,Ormond-Grant Park,B,W,1,Ormond St./Grant St. SE,1.30452626763,30315,0,0,0,1,0,0,0,0,0,0,0,,0,,,0,0,,0,0,0,0,0,0,0,1.300,,56776.82810000000
254,Outdoor Activity Center,NP,S,4,1442 Richland Rd. SW,21.76430587410,30310,0,0,0,0,0,0,0,0,0,0,0,,0,1,0.75,0,0,,0,0,0,0,0,0,0,21.764,,947311.96312000000
255,Phoenix III Park,N,V,1,Georgia Ave./Connally St. SE,3.83210972891,30312,0,0,0,1,0,0,0,0,0,0,0,,0,,,0,0,,0,0,0,0,0,0,0,4.000,,166785.54267000000
256,Phoenix II Park,N,V,1,141 Martin St. SE (at Georgia Ave.),7.13277090374,30315,0,0,3,1,0,0,0,0,0,0,1,,2,,,2,0,,0,0,0,0,0,0,0,7.300,,310441.62990000000
257,Pittman Park,C,V,4,950 Garibaldi St. SE,13.77582710450,30310,0,0,2,1,4,0,0,1,0,0,2,,3,,,2,0,1,1,1,0,0,0,0,0,14.100,Pittman,599579.70806000000
258,Rebel Valley Playlot,B,Z,1,1005 Stonewall Drive SE,1.37283554824,30315,0,0,1,1,1,0,0,0,0,0,0,,0,,,1,0,,0,0,0,0,0,0,0,1.373,,59748.25246000000
259,Rosel Fann Park,C,Z,12,365 Cleveland Ave. SE,18.54688083440,30354,1,0,2,1,0,0,0,0,0,133,1,,0,,,0,0,0,1,1,0,0,0,1,0,20.080,Rosel Fann,807215.05634000000
260,South Atlanta Park,N,Y,1,Gammon St. SE at Bisbee Ave.,11.05326263910,30315,0,0,1,1,0,1,0,0,0,0,1,,3,1,0.25,1,0,,0,0,0,0,1,0,0,11.053,,481076.75528000000
261,Tucson Trail Park,N,P,11,"4610 Tucson Trail SW, at Santa Rosa Dr.",2.77379981536,30331,0,0,0,1,0,0,0,0,0,0,1,,0,,,0,0,1,0,0,0,0,0,0,0,2.774,,120747.25580000000
262,Underwood Hills Park,N,D,9,1845 Harper St. NW,9.72968002846,30318,0,0,0,1,1,0,0,0,0,0,1,,2,,,1,0,,0,0,0,0,0,0,0,10.700,,423485.72757000000
263,Walker Park,N,O,5,Memorial Dr. at Memorial Ter. SE,6.46324050213,30316,0,0,0,1,0,0,0,0,0,0,1,1,0,,,0,0,,0,0,0,0,0,0,0,7.020,,281287.28144000000
264,Wilson Mill Park,C,H,10,300 Wilson Mill Rd. SW,36.77345485270,30331,0,0,0,2,2,0,0,0,0,0,3,,2,,,1,0,,0,0,0,0,0,0,0,35.500,,1600751.30630000000
265,Windsor Street Park,B,V,4,700 Windsor St. at Bass St. SE,1.08955080799,30310,0,0,0,1,1,0,0,0,0,0,0,,0,,,1,0,,0,0,0,0,0,0,0,1.090,,47421.66726000000
266,Stafford Street Park,G,K,4,Stafford St. SW at Jasper St.,0.11796386199,30314,0,0,0,0,0,0,0,0,0,0,0,,0,,,0,0,,0,0,0,0,0,0,0,0.118,,5134.43567000000
267,Coan Park,C,O,5,1530 Woodbine Ave. SE,13.26408406910,30317,1,0,1,1,0,0,0,0,0,0,1,,4,1,0.2,2,0,,1,1,0,0,0,0,0,13.264,Coan,577264.49358000000
268,Whittier Mills Park,N,D,9,Spad Ave. at Wales Ave. NW,21.65898361120,30318,0,0,0,0,0,0,0,0,,,0,,0,1,,0,0,,,0,0,0,0,0,0,22.000,,942787.90555000000
269,South Bend Park,C,Y,1,1955 Compton Dr. SE,75.49791157590,30315,0,0,1,1,7,0,0,0,0,50,3,1,2,,,2,0,1,1,0,0,0,0,0,0,76.600,,3285925.62151000000
270,Cascade Springs Nature Preserve,NP,R,11,2852 Cascade Rd. SW,120.94626914700,30311,0,0,0,0,0,0,0,0,0,0,0,,0,1,0.5,0,0,,0,0,0,0,0,0,0,120.000,,5264583.04248000000
271,Rosa L. Burney Park,C,V,4,477 Windsor St. SE,13.72673262450,30312,0,0,0,2,0,0,0,0,,0,1,,2,,,0,0,1,0,1,0,0,0,0,0,13.727,Dunbar Rec Ctr,597444.40439000000
272,Oakland Cemetery,C,W,5,248 Oakland Ave. SE,47.74358982830,30312,0,0,0,0,0,0,0,0,0,0,0,,0,,,0,0,,0,0,0,0,0,0,0,47.700,,2077930.93859000000
273,Roseland Cemetery,SF,X,12,E. Cleveland Ave. at I-85 and Cemetery Dr. SE,0.21959367216,30315,0,0,0,0,0,0,0,0,,,0,,0,,,0,0,,,0,0,0,0,0,0,0.220,,9557.77244000000
274,Jacci Fuller Woodland Garden Park,B,W,1,Gilbert St. at Confederate Ave. SE,0.64204119522,30316,0,0,0,1,0,0,1,0,0,0,0,,0,,,0,0,,0,0,0,0,0,0,0,0.642,,27942.68412000000
275,Cabbagetown Park,N,N,5,701 Kirkwood Ave. SE,3.65966801308,30316,0,0,0,1,0,0,0,0,,,0,,0,,,0,0,,,0,0,0,0,0,0,3.660,,159277.27263000000
276,West Wesley Park,CN,B,8,"59 W. Wesley Rd. NW, 1 block west of Peachtree Rd.",1.12818471573,30305,0,0,0,0,0,0,0,0,0,0,0,,0,,,0,0,,0,0,0,0,0,0,0,1.128,,49102.80603000000
277,17th Street Park,N,E,6,138 17th Street NE,2.30347083742,30309,0,0,0,0,0,0,0,0,0,,0,,0,,,0,0,,,0,0,0,0,0,0,2.303,,100254.70254000000
278,25th Street Beauty Spot,G,E,8,"25th St., Alden Ave. to Standish Ave. NW",0.10590386070,30309,0,0,0,0,0,0,0,0,0,0,0,,0,,,0,0,,0,0,0,0,0,0,0,0.106,,4609.34160000000
279,Adamsville Recrecreation Center,R,I,10,"3201 Martin Luther King, Jr. Dr. SW",10.94138281130,30311,0,0,0,0,0,0,0,0,,,0,,0,,,0,0,,,1,0,0,0,1,0,11.000,Adamsville,476267.68538000000
280,Adamsville Triangle,G,H,10,"Fairburn/MLK, Jr. Dr./Bakers Ferry Rd.",0.04571556033,30331,0,0,0,0,0,0,0,0,0,0,0,,0,,,0,0,,0,0,0,0,0,0,0,0.046,,1989.97802000000
281,Arbor Park,G,O,5,East Lake Dr. at Arbor St. SE,0.36351572308,30317,0,0,0,0,0,0,0,0,0,0,0,,0,,,0,0,,0,0,0,0,0,0,0,0.364,,15819.79813000000
282,Barclay Median,G,F,6,Barclay Place/E. Rock Springs NE,0.31497155822,30306,0,0,0,0,0,0,0,0,0,0,0,,0,,,0,0,,0,0,0,0,0,0,0,0.315,,13708.09279000000
283,Brookline Park,G,V,4,"Brookline St. at Elbert St., near Murphy Ave. SW",0.05522805276,30310,0,0,0,0,0,0,0,0,0,0,0,,0,,,0,0,,0,0,0,0,0,0,0,0.055,,2403.80015000000
284,Browns Mill/McWilliams Park,G,Z,1,Browns Mill Rd. @ McWilliams Rd. SE,0.04164390396,30315,0,0,0,0,0,0,0,0,0,0,0,,0,,,0,0,,0,0,0,0,0,0,0,0.042,,1812.45187000000
285,Chatham and Avon Park,G,S,4,Avon Ave./Chatham Rd.,0.04503698760,30311,0,0,0,0,0,0,0,0,0,0,0,,0,,,0,0,,0,0,0,0,0,0,0,0.045,,1960.29527000000
286,Dale Creek Park,CN,I,10,Dale Creek Dr. NW,2.98036102129,30318,0,0,0,0,0,0,0,0,0,0,0,,0,,,0,0,,0,0,0,0,0,0,0,3.200,,129729.95034000000
287,Dollar Mill Median,G,H,10,Boulder Park Dr./Dollar Mill Rd.,0.24443728112,30331,0,0,0,0,0,0,0,0,0,0,0,,0,,,0,0,,0,0,0,0,0,0,0,0.244,,10640.53978000000
288,E. Club and Lakehaven Park,G,B,7,E. Club Lane/Lakehaven Dr. NE,0.01296141677,30319,0,0,0,0,0,0,0,0,0,0,0,,0,,,0,0,,0,0,0,0,0,0,0,0.013,,564.10622000000
289,East Andrews and Roswell Park,G,B,8,E. Andrews Dr. NW at /Roswell Rd.,0.00708403333,30305,0,0,0,0,0,0,0,0,0,0,0,,0,,,0,0,,0,0,0,0,0,0,0,0.007,,308.32253000000
354,John Wesley Dobbs Park,N,M,2,Fort Street & Auburn Ave,0.00000000000,30303,0,0,0,0,0,0,0,0,,,0,,0,,,0,0,,,0,0,0,0,0,0,1.300,,60194.19971000000
290,Eastwood/Emerson Triangle,G,W,1,Eastwood Av. at Emerson Av. SE,0.03173888545,30316,0,0,0,0,0,0,0,0,0,0,0,,0,,,0,0,,0,0,0,0,0,0,0,0.032,,1381.32830000000
291,Fire Station #5 Park,G,M,2,Trinity Ave. SW at Spring St.,0.08380926504,30303,0,0,0,0,0,0,0,0,0,0,0,,0,,,0,0,,0,0,0,0,0,0,0,0.084,,3647.72787000000
292,Fountain Drive #1,G,T,4,"1114, at Morris Brown Dr. SW",0.00930318815,30314,0,0,0,0,0,0,0,0,0,0,0,,0,,,0,0,,0,0,0,0,0,0,0,0.009,,404.92602000000
293,Fountain Drive #2,G,T,4,at Morris Brown Dr. SW,0.01586877870,30314,0,0,0,0,0,0,0,0,0,0,0,,0,,,0,0,,0,0,0,0,0,0,0,0.016,,690.69761000000
294,Georgia Hill Center,CC,W,1,"250 Georgia Avenue SE
",3.08850066457,30312,0,0,0,0,0,0,0,0,,,0,,0,,,0,0,,,0,0,0,0,0,0,3.089,,134421.12764000000
295,Gertrude Place,G,J,3,Gertrude Place/Bankhead Hwy. NW,1.13318234005,30318,0,0,0,0,0,1,0,0,0,0,0,,0,,,0,0,,0,0,0,0,0,0,0,1.133,,49323.54837000000
296,Howell Mill at Beaverbrook Park,G,C,8,"Howell Mill Rd/Beaverbrook Dr, NW",0.04636213386,30318,0,0,0,0,0,0,0,0,0,0,0,,0,,,0,0,,0,0,0,0,0,0,0,0.046,,2017.91219000000
297,Jonesboro Triangle,G,Z,12,Jonesboro Rd. @ Hutchens Rd. SE,0.16496691630,30354,0,0,0,0,0,0,0,0,0,0,0,,0,,,0,0,,0,0,0,0,0,0,0,0.165,,7179.77714000000
298,Spink-Collins Park,N,D,9,"2001 COLLINS DRIVE
",21.48777837260,30318,0,0,0,0,0,0,0,0,,,0,,0,,,0,0,,,0,0,0,0,0,0,25.488,,1142053.90597000000
299,Kimpson Park,B,Y,1,97 Thirkeld Ave. SE,0.38162163027,30315,0,0,0,0,0,0,0,0,0,0,0,,0,,,0,1,,0,0,0,0,0,0,0,0.382,,16609.48661000000
300,Lang-Carson Park,C,N,5,100 Flat Shoals Ave. SE,3.19570646178,30316,0,0,0,1,1,0,0,0,0,0,0,,0,,,1,0,,0,1,0,0,0,0,0,3.240,Lang Carson,148047.56372000000
301,Lanier Boulevard Parkway,G,F,6,Lanier Blvd. NE from N. Highland-M'side Dr.,2.09707145602,30306,0,0,0,0,0,0,0,0,0,0,0,,0,,,0,0,,0,0,0,0,0,0,0,2.097,,91268.00291000000
302,Leathers Circle,G,J,3,at Porter Dr. NW off West Lake Ave.,0.05752078512,30314,0,0,0,0,0,0,0,0,0,0,0,,0,,,0,0,,0,0,0,0,0,0,0,0.058,,2503.67350000000
303,Magnum and Lynhurst Park,G,I,10,Mangum Lane @ Lynhurst Dr. SW,0.10201592900,30311,0,0,0,0,0,0,0,0,0,0,0,,0,,,0,0,,0,0,0,0,0,0,0,0.102,,4440.62877000000
304,Matilda Place Park,G,J,3,Matilda Place NW/Bankhead Hwy.,1.26639097961,30318,0,0,0,0,0,0,0,0,0,0,0,,0,,,0,0,,0,0,0,0,0,0,0,1.266,,55121.58420000000
305,Mayflower Beauty Spot,G,S,4,Mayflower Ave./ Cascade Av. to Ocala SW,0.25112140695,30311,0,0,0,0,0,0,0,0,0,0,0,,0,,,0,0,,0,0,0,0,0,0,0,0.251,,10930.38986000000
306,Moreland Avenue Planters,G,W,5,Moreland Ave. at McPherson Ave. SE,0.05456133901,30316,0,0,0,0,0,0,0,0,,,0,,0,,,0,0,,,0,0,0,0,0,0,0.055,,2374.60060000000
307,Morgan-Boulevard Park,B,M,2,521 Boulevard NE,0.39352497254,30308,0,0,0,1,0,0,0,0,0,0,0,,0,,,1,0,,0,0,0,0,0,0,0,0.394,,17127.26300000000
308,Mt. Paran Rd. at Cave Rd. Triangle,G,A,8,1880 Mt. Paran Rd. NW,0.22623849031,30327,0,0,0,0,0,0,0,0,,,0,,0,,,0,0,,,0,0,0,0,0,0,0.226,,9847.31180000000
309,Mt. Paran and Northside Park,G,A,8,Mt Paran Rd. at Northside Dr. NW,0.22210191698,30327,0,0,0,0,0,0,0,0,0,0,0,,0,,,0,0,,0,0,0,0,0,0,0,0.222,,9667.01254000000
311,North Buckhead Park,G,B,7,Phipps Blvd. at Wieuca Rd. NE,0.12696415072,30342,0,0,0,0,0,0,0,0,,,0,,0,0,0,0,0,,,0,0,0,0,0,0,0.127,,5525.76229000000
312,North Evelyn Place Park,G,J,3,N. Evelyn Place NW/Bankhead Hwy.,0.86580036083,30318,0,0,0,0,0,0,0,0,0,0,0,,0,,,0,0,,0,0,0,0,0,0,0,0.866,,37685.35969000000
313,Northcliffe and Brookview Park,G,C,8,Northcliffe Dr./Brookview Dr. NW,0.02438629519,30318,0,0,0,0,0,0,0,0,0,0,0,,0,,,0,0,,0,0,0,0,0,0,0,0.024,,1061.41955000000
314,Ontario Park,G,T,10,Ontario Ave./Stokes Ave. SW,0.07381706215,30310,0,0,0,0,0,0,0,0,0,0,0,,0,,,0,0,,0,0,0,0,0,0,0,0.074,,3212.97248000000
315,Oriole Park,G,I,10,End of (near 890) Oriole Dr. SW,0.09541150390,30311,0,0,0,0,0,0,0,0,0,0,0,,0,,,0,0,,0,0,0,0,0,0,0,0.095,,4153.05870000000
316,Parkway-Angier Park,B,M,2,Parkway at Angier Ave. NE,0.49493469527,30308,0,0,0,0,0,0,0,0,0,0,0,,0,,,1,0,,0,0,0,0,0,0,0,0.495,,21540.98695000000
317,Pelham Road Park,G,F,6,E. Pelham Rd./Piedmont Rd. NE,0.08582152502,30324,0,0,0,0,0,0,0,0,0,0,0,,0,,,0,0,,0,0,0,0,0,0,0,0.086,,3735.16821000000
318,Piedmont Heights Park,G,F,6,Montgomery Ferry Rd. at Pelham Rd.,0.03440465850,30324,0,0,0,0,0,0,0,0,,,0,,0,,,0,0,,,0,0,0,0,0,0,0.034,,1497.38285000000
319,Piedmont Road Triangle,G,B,7,Piedmont Rd./Elliott Circle NE,0.01342558880,30305,0,0,0,0,0,0,0,0,0,0,0,,0,,,0,0,,0,0,0,0,0,0,0,0.013,,584.31735000000
320,Pinetree and Brentwood Park,G,B,7,Pinetree Dr. at Brentwood Dr. NE,0.07557205436,30305,0,0,0,0,0,0,0,0,0,0,0,,0,,,0,0,,0,0,0,0,0,0,0,0.076,,3289.11461000000
321,Prairie View Beauty Spot,G,I,10,Willis Mill Rd. south of MLK,0.02954606384,30311,0,0,0,0,0,0,0,0,0,0,0,,0,,,0,0,,0,0,0,0,0,0,0,0.030,,1286.07366000000
322,Rumson and Pinetree Park,G,B,7,Rumson Rd. NE at Pinetree Dr.,0.00875608600,30305,0,0,0,0,0,0,0,0,0,0,0,,0,,,0,0,,0,0,0,0,0,0,0,0.009,,381.09156000000
323,South Evelyn Place Park,G,J,3,S. Evelyn Place NW/Bankhead Hwy.,1.00811596907,30318,0,0,0,0,0,0,0,0,0,0,0,,0,,,0,0,,0,0,0,0,0,0,0,1.008,,43879.84784000000
324,South Gordon Triangle,G,T,10,S. Gordon St. at R.D. Abernathy Blvd. SW,0.01199904086,30310,0,0,0,0,0,0,0,0,0,0,0,,0,,,0,0,,0,0,0,0,0,0,0,0.012,,522.27153000000
325,Welch Street Park,G,V,4,794 Welch St. SE,0.17838884989,30310,0,0,0,0,0,0,0,0,0,0,0,,0,,,0,0,,0,0,0,0,0,0,0,0.178,,7764.27787000000
326,Willard and Gordon Park,G,T,10,Willard Ave. at S. Gordon St. SW,0.07152481696,30310,0,0,0,0,0,0,0,0,0,0,0,,0,,,0,0,,0,0,0,0,0,0,0,0.072,,3113.19775000000
327,Gun Club Park,CN,G,9,1137 Gun Club Road,44.10000000000,,0,0,0,0,0,0,0,0,,,0,,0,,,0,0,,,0,0,0,0,0,0,28.930,,1816996.35109000000
328,Adams Park,R,R,11,2300 Wilson Drive SW,158.43000000000,30311,0,0,0,0,0,0,0,0,,,0,,4,,,0,0,1,,1,0,0,0,0,1,158.440,Adams Park,6956492.34051000000
330,Rockdale Park,NP,G,9,Habershal Dr & Johnson Rd,18.00000000000,30318,0,0,0,0,0,0,0,0,,,0,,0,,,0,0,,,0,0,0,0,0,0,18.330,,784981.74034000000
331,Emma Millican Park,N,X, 12,Deckner Avenue & Clinton Pl SW,9.73000000000,30310,0,0,0,1,1,0,0,1,0,0,0,,0,,,0,0,,,0,0,0,0,0,0,10.365,,467267.95491000000
332,Benoit,B,"V,S",12,Catherine St & Allene Ave,0.00000000000,30310,0,0,0,0,0,0,0,0,,,0,,0,,,0,0,,,0,0,0,0,0,0,1.090,,43332.64663000000
333,Ben Hill Park,C, P,11,2404 Fairburn Rd SW,18.95000000000,30331,0,0,0,1,1,0,1,1,,,3,,2,,,1,0,,1,1,1,0,0,0,0,21.970,Ben Hill,997437.37471000000
334,Mantissa Road,B, D,9,Mantissa Street & Cambria Ave,0.00000000000,30318,0,0,0,0,0,0,0,0,,,0,,0,,,0,0,,,0,0,0,0,0,0,1.870,,111105.17389000000
335,Verbena Street Playlot,B, J,3,120 Hyacinth Ave NW & 2185 Verbena St NW,0.68668700000,30314,0,0,0,1,0,0,0,0,0,0,0,,0,,,0,0,,,0,0,0,0,0,0,0.687,,29889.70428000000
336,Shirley Place Park,G,J,3,60 Shirley Place,1.63000000000,,0,0,0,0,0,0,0,0,,,0,,0,,,0,0,,,0,0,0,0,0,0,5.660,,195247.89077000000
337,Arlington Circle Beauty Spot,G,J,9,Arlington Circle & South Eugenia Place,0.00000000000,30318,0,0,0,0,0,0,0,0,,,0,,0,,,0,0,,,0,0,0,0,0,0,0.860,,37279.00207000000
338,Tanyard Creek Park,N,C, 8,"Collier Road and Wlathall Dr., NW",15.60000000000,30318,0,0,0,1,0,0,3,0,,,0,,0,,,0,0,,,0,0,0,0,0,0,14.500,,693591.16562000000
339,Blue Heron Nature Preserve,NP,G,7,Pinecrest Rd & Rickenbacker Dr,0.00000000000,30342,0,0,0,0,0,0,0,0,,,0,,0,,,0,0,,,0,0,0,0,0,0,9.550,,466984.03035000000
340,Atlanta Memorial Park,R,C,8,384 Woodward Way NW,191.00000000000,30327,1,1,0,0,0,0,0,0,,,0,,23,,,0,0,,,0,0,0,0,0,1,193.800,,8317247.64989000000
341,Harold Avenue Place,G,N,5,595 Harold Avenue,0.00000000000,30307,0,0,0,0,0,0,0,0,,,0,,0,,,0,0,,,0,0,0,0,0,0,0.520,,22795.68573000000
342,Morningside Recreation Center,C,F,6,"1053 Rocksprings Road, NE",2.93000000000,,0,0,0,0,0,0,0,0,,,0,,0,,,0,0,,,1,0,0,0,0,0,2.930,Morningside,213028.81209000000
343,Four Corners Park,N, V,1,1040 Crew Street SE,4.80000000000,,0,0,0,1,0,0,0,0,,,0,,0,,,0,0,,,1,0,0,0,0,0,4.800,Four Corners,210116.05728000000
344,Memorial Drive Greenway,G,W,5,234 Memorial Drive SE,0.00000000000,,0,0,0,0,0,0,0,0,,,0,,0,,,0,0,,,0,0,0,0,0,0,1.660,,196947.89356000000
345,Chosewood Park,N,Y,1,401 Nolan Street SE,9.12000000000,30315,0,0,0,1,0,0,1,4,,,1,,1,,,0,0,,,0,0,0,0,0,0,15.320,,710937.95318000000
162,Charles Loudermilk Park,G,B,7,Peachtree Rd. at Roswell Rd. NW,0.52408136982,30305,0,0,0,0,0,0,0,0,0,0,0,,0,,,0,0,,0,0,0,0,0,0,0,0.524,,22809.75811000000
353,Little Nancy Creek Park,NP,B,7,3984 Peachtree Dunwoody Road,4.96000000000,,0,0,0,0,0,0,0,0,,,0,,0,,,0,0,,,0,0,0,0,0,0,4.960,,202154.61438000000
673,Westside Park,R,J,9,1090 Lois Street,0.00000000000,,0,0,0,0,0,0,0,0,,,0,,0,,,0,0,,,0,0,0,0,0,0,54.410,,469891.15317000000
993,Coventry Station CE,NP,R,11,Greenbriar Parkway,0.00000000000,,0,0,0,0,0,0,0,0,,,0,,0,,,0,0,,,0,0,0,0,0,0,28.320,,702044.89618000000
994,Whetstone Creek Park,NP,D,9,2329 Adams Drive,0.00000000000,,0,0,0,0,0,0,0,0,,,0,,0,,,0,0,,,0,0,0,0,0,0,2.330,,76893.25130000000
1635,Drake Park,G,I,9,Waterford Road,0.00000000000,,0,0,0,0,0,0,0,0,,,0,,0,,,0,0,,,0,0,0,0,0,0,5.270,,213327.02667000000
1634,Howard Park,N,C,8,471 Collier Drive NE,0.00000000000,30318,0,0,1,0,0,0,0,0,,,0,,0,,,0,0,,,0,0,0,0,0,0,5.520,,222150.92293000000
1953,North Camp Creek Parkway NP,NP,P,11,3380 Stone Rd SW,59.40000000000,30331,1,0,0,0,0,0,0,0,,,0,,0,,,0,0,,,0,0,0,0,0,0,66.300,,3186670.93442000000
